[{"OBJECT_NAME":"IRIDIUM 107","OBJECT_ID":"2017-061F","EPOCH":"2026-03-09T22:26:14.574624","MEAN_MOTION":14.34217551,"ECCENTRICITY":0.00017516,"INCLINATION":86.3913,"RA_OF_ASC_NODE":66.7602,"ARG_OF_PERICENTER":87.4442,"MEAN_ANOMALY":272.6954,"EPHEMERIS_TYPE":0,"CLASSIFICATION_TYPE":"U","NORAD_CAT_ID":42960,"ELEMENT_SET_NO":999,"REV_AT_EPOCH":44059,"BSTAR":-3.536384e-6,"MEAN_MOTION_DOT":1.0e-7,"MEAN_MOTION_DDOT":0},{"OBJECT_NAME":"CZ-6A DEB","OBJECT_ID":"2024-140JA","EPOCH":"2026-03-09T00:41:36.610080","MEAN_MOTION":14.35291538,"ECCENTRICITY":0.00251172,"INCLINATION":88.9617,"RA_OF_ASC_NODE":282.2481,"ARG_OF_PERICENTER":182.5364,"MEAN_ANOMALY":177.5711,"EPHEMERIS_TYPE":0,"CLASSIFICATION_TYPE":"U","NORAD_CAT_ID":60847,"ELEMENT_SET_NO":999,"REV_AT_EPOCH":8191,"BSTAR":0.0017293339,"MEAN_MOTION_DOT":4.984e-5,"MEAN_MOTION_DDOT":0}]
